start=new Date('2023-02-19T00:00:00.000Z').valueOf();
sats=[{"MEAN_MOTION_DOT":"0.00007620","MEAN_MOTION":"15.06376216","PERIAPSIS":"546.302","PERIOD":"95.594","EPHEMERIS_TYPE":"0","RA_OF_ASC_NODE":"300.2944","OBJECT_TYPE":"PAYLOAD","TLE_LINE1":"1 48023U 21024AY  23048.96700056  .00007620  00000-0  53025-3 0  9999","ELEMENT_SET_NO":"999","FILE":"3807124","INCLINATION":"53.0528","RCS_SIZE":"LARGE","APOAPSIS":"548.271","REF_FRAME":"TEME","TIME_SYSTEM":"UTC","OBJECT_NAME":"STARLINK-2292","MEAN_MOTION_DDOT":"0.0000000000000","ARG_OF_PERICENTER":"90.5429","SEMIMAJOR_AXIS":"6925.421","SITE":"AFETR","COUNTRY_CODE":"US","LAUNCH_DATE":"2021-03-24","TLE_LINE2":"2 48023  53.0528 300.2944 0001421  90.5429 269.5723 15.06376216106469","NORAD_CAT_ID":"48023","OBJECT_ID":"2021-024AY","EPOCH":"2023-02-17T23:12:28.848384","ECCENTRICITY":"0.00014210","DECAY_DATE":null,"BSTAR":"0.00053025000000","GP_ID":"225923378","MEAN_ANOMALY":"269.5723","CENTER_NAME":"EARTH","REV_AT_EPOCH":"10646","CLASSIFICATION_TYPE":"U","MEAN_ELEMENT_THEORY":"SGP4"},{"APOAPSIS":"548.059","TIME_SYSTEM":"UTC","REF_FRAME":"TEME","ARG_OF_PERICENTER":"111.9797","MEAN_MOTION_DDOT":"0.0000000000000","OBJECT_NAME":"STARLINK-2278","FILE":"3807124","INCLINATION":"53.0532","RCS_SIZE":"LARGE","EPHEMERIS_TYPE":"0","PERIOD":"95.593","RA_OF_ASC_NODE":"303.3050","ELEMENT_SET_NO":"999","TLE_LINE1":"1 48026U 21024BB  23049.41070255  .00005553  00000-0  39146-3 0  9995","OBJECT_TYPE":"PAYLOAD","MEAN_MOTION":"15.06390918","PERIAPSIS":"546.424","MEAN_MOTION_DOT":"0.00005553","CLASSIFICATION_TYPE":"U","REV_AT_EPOCH":"10640","CENTER_NAME":"EARTH","MEAN_ELEMENT_THEORY":"SGP4","DECAY_DATE":null,"EPOCH":"2023-02-18T09:51:24.700320","ECCENTRICITY":"0.00011800","GP_ID":"225922141","BSTAR":"0.00039146000000","MEAN_ANOMALY":"248.1317","TLE_LINE2":"2 48026  53.0532 303.3050 0001180 111.9797 248.1317 15.06390918106408","NORAD_CAT_ID":"48026","LAUNCH_DATE":"2021-03-24","OBJECT_ID":"2021-024BB","SEMIMAJOR_AXIS":"6925.376","SITE":"AFETR","COUNTRY_CODE":"US"},{"REF_FRAME":"TEME","TIME_SYSTEM":"UTC","OBJECT_NAME":"STARLINK-2300","MEAN_MOTION_DDOT":"0.0000000000000","ARG_OF_PERICENTER":"87.0767","APOAPSIS":"548.348","INCLINATION":"53.0553","RCS_SIZE":"LARGE","FILE":"3808357","TLE_LINE1":"1 48027U 21024BC  23049.90138770  .00009762  00000-0  67339-3 0  9998","ELEMENT_SET_NO":"999","OBJECT_TYPE":"PAYLOAD","EPHEMERIS_TYPE":"0","PERIOD":"95.592","RA_OF_ASC_NODE":"276.0974","PERIAPSIS":"546.101","MEAN_MOTION":"15.06396335","MEAN_MOTION_DOT":"0.00009762","MEAN_ELEMENT_THEORY":"SGP4","CLASSIFICATION_TYPE":"U","REV_AT_EPOCH":"10635","CENTER_NAME":"EARTH","BSTAR":"0.00067339000000","GP_ID":"225954699","MEAN_ANOMALY":"273.0407","DECAY_DATE":null,"EPOCH":"2023-02-18T21:37:59.897280","ECCENTRICITY":"0.00016220","LAUNCH_DATE":"2021-03-24","TLE_LINE2":"2 48027  53.0553 276.0974 0001622  87.0767 273.0407 15.06396335106354","NORAD_CAT_ID":"48027","OBJECT_ID":"2021-024BC","SEMIMAJOR_AXIS":"6925.360","SITE":"AFETR","COUNTRY_CODE":"US"},{"COUNTRY_CODE":"US","SITE":"AFETR","SEMIMAJOR_AXIS":"6925.362","OBJECT_ID":"2021-024BD","TLE_LINE2":"2 48028  53.0540 233.0579 0001160  93.9338 266.1784 15.06395593107450","LAUNCH_DATE":"2021-03-24","NORAD_CAT_ID":"48028","GP_ID":"225922647","MEAN_ANOMALY":"266.1784","BSTAR":"0.00011059000000","DECAY_DATE":null,"ECCENTRICITY":"0.00011600","EPOCH":"2023-02-18T13:17:07.659168","MEAN_ELEMENT_THEORY":"SGP4","CLASSIFICATION_TYPE":"U","CENTER_NAME":"EARTH","REV_AT_EPOCH":"10745","PERIAPSIS":"546.424","MEAN_MOTION":"15.06395593","MEAN_MOTION_DOT":"0.00001366","TLE_LINE1":"1 48028U 21024BD  23049.55356087  .00001366  00000-0  11059-3 0  9993","ELEMENT_SET_NO":"999","OBJECT_TYPE":"PAYLOAD","RA_OF_ASC_NODE":"233.0579","EPHEMERIS_TYPE":"0","PERIOD":"95.592","RCS_SIZE":"LARGE","INCLINATION":"53.0540","FILE":"3807124","MEAN_MOTION_DDOT":"0.0000000000000","OBJECT_NAME":"STARLINK-2264","ARG_OF_PERICENTER":"93.9338","REF_FRAME":"TEME","TIME_SYSTEM":"UTC","APOAPSIS":"548.030"},{"APOAPSIS":"547.942","TIME_SYSTEM":"UTC","REF_FRAME":"TEME","OBJECT_NAME":"STARLINK-2299","MEAN_MOTION_DDOT":"0.0000000000000","ARG_OF_PERICENTER":"103.3767","FILE":"3807124","INCLINATION":"53.0534","RCS_SIZE":"LARGE","EPHEMERIS_TYPE":"0","PERIOD":"95.592","RA_OF_ASC_NODE":"297.4128","ELEMENT_SET_NO":"999","TLE_LINE1":"1 48029U 21024BE  23049.60835518  .00012434  00000-0  85223-3 0  9993","OBJECT_TYPE":"PAYLOAD","MEAN_MOTION":"15.06395206","PERIAPSIS":"546.515","MEAN_MOTION_DOT":"0.00012434","CLASSIFICATION_TYPE":"U","CENTER_NAME":"EARTH","REV_AT_EPOCH":"10656","MEAN_ELEMENT_THEORY":"SGP4","DECAY_DATE":null,"EPOCH":"2023-02-18T14:36:01.887552","ECCENTRICITY":"0.00010300","GP_ID":"225922884","MEAN_ANOMALY":"256.7336","BSTAR":"0.00085223000000","NORAD_CAT_ID":"48029","TLE_LINE2":"2 48029  53.0534 297.4128 0001030 103.3767 256.7336 15.06395206106566","LAUNCH_DATE":"2021-03-24","OBJECT_ID":"2021-024BE","SEMIMAJOR_AXIS":"6925.363","COUNTRY_CODE":"US","SITE":"AFETR"},{"MEAN_ELEMENT_THEORY":"SGP4","REV_AT_EPOCH":"10598","CENTER_NAME":"EARTH","CLASSIFICATION_TYPE":"U","GP_ID":"225942963","BSTAR":"0.00102020000000","MEAN_ANOMALY":"250.2826","EPOCH":"2023-02-18T18:26:15.861696","ECCENTRICITY":"0.00013270","DECAY_DATE":null,"OBJECT_ID":"2021-024BF","LAUNCH_DATE":"2021-03-24","TLE_LINE2":"2 48030  53.0535 301.6997 0001327 109.8306 250.2826 15.06403327105982","NORAD_CAT_ID":"48030","SITE":"AFETR","COUNTRY_CODE":"US","SEMIMAJOR_AXIS":"6925.338","MEAN_MOTION_DDOT":"0.0000000000000","OBJECT_NAME":"STARLINK-2268","ARG_OF_PERICENTER":"109.8306","TIME_SYSTEM":"UTC","REF_FRAME":"TEME","APOAPSIS":"548.122","RCS_SIZE":"LARGE","INCLINATION":"53.0535","FILE":"3807782","OBJECT_TYPE":"PAYLOAD","TLE_LINE1":"1 48030U 21024BF  23049.76823914  .00014948  00000-0  10202-2 0  9995","ELEMENT_SET_NO":"999","RA_OF_ASC_NODE":"301.6997","PERIOD":"95.592","EPHEMERIS_TYPE":"0","MEAN_MOTION_DOT":"0.00014948","MEAN_MOTION":"15.06403327","PERIAPSIS":"546.284"},{"BSTAR":"-0.00002423200000","GP_ID":"225921894","MEAN_ANOMALY":"273.5526","DECAY_DATE":null,"ECCENTRICITY":"0.00012140","EPOCH":"2023-02-18T12:59:08.506752","MEAN_ELEMENT_THEORY":"SGP4","CLASSIFICATION_TYPE":"U","REV_AT_EPOCH":"10803","CENTER_NAME":"EARTH","SEMIMAJOR_AXIS":"6925.376","COUNTRY_CODE":"US","SITE":"AFETR","NORAD_CAT_ID":"48031","TLE_LINE2":"2 48031  53.0517 187.7164 0001214  86.5602 273.5526 15.06391036108034","LAUNCH_DATE":"2021-03-24","OBJECT_ID":"2021-024BG","INCLINATION":"53.0517","RCS_SIZE":"MEDIUM","FILE":"3807124","TIME_SYSTEM":"UTC","REF_FRAME":"TEME","MEAN_MOTION_DDOT":"0.0000000000000","ARG_OF_PERICENTER":"86.5602","OBJECT_NAME":"STARLINK-2267","APOAPSIS":"548.082","PERIAPSIS":"546.400","MEAN_MOTION":"15.06391036","MEAN_MOTION_DOT":"-0.00000642","ELEMENT_SET_NO":"999","TLE_LINE1":"1 48031U 21024BG  23049.54107068 -.00000642  00000-0 -24232-4 0  9995","OBJECT_TYPE":"PAYLOAD","EPHEMERIS_TYPE":"0","PERIOD":"95.593","RA_OF_ASC_NODE":"187.7164"},{"FILE":"3807124","INCLINATION":"53.0519","RCS_SIZE":"LARGE","APOAPSIS":"548.164","TIME_SYSTEM":"UTC","REF_FRAME":"TEME","MEAN_MOTION_DDOT":"0.0000000000000","OBJECT_NAME":"STARLINK-2286","ARG_OF_PERICENTER":"85.8452","MEAN_MOTION_DOT":"0.00001077","PERIAPSIS":"546.391","MEAN_MOTION":"15.06379055","PERIOD":"95.593","EPHEMERIS_TYPE":"0","RA_OF_ASC_NODE":"298.0650","OBJECT_TYPE":"PAYLOAD","ELEMENT_SET_NO":"999","TLE_LINE1":"1 48033U 21024BJ  23049.46461083  .00001077  00000-0  91240-4 0  9992","ECCENTRICITY":"0.00012800","EPOCH":"2023-02-18T11:09:02.375712","DECAY_DATE":null,"GP_ID":"225923142","MEAN_ANOMALY":"274.2683","BSTAR":"0.00009124000000","REV_AT_EPOCH":"10654","CENTER_NAME":"EARTH","CLASSIFICATION_TYPE":"U","MEAN_ELEMENT_THEORY":"SGP4","SEMIMAJOR_AXIS":"6925.413","COUNTRY_CODE":"US","SITE":"AFETR","TLE_LINE2":"2 48033  53.0519 298.0650 0001280  85.8452 274.2683 15.06379055106545","LAUNCH_DATE":"2021-03-24","NORAD_CAT_ID":"48033","OBJECT_ID":"2021-024BJ"},{"MEAN_MOTION_DOT":"0.00005030","PERIAPSIS":"546.581","MEAN_MOTION":"15.06399943","PERIOD":"95.592","EPHEMERIS_TYPE":"0","RA_OF_ASC_NODE":"296.7897","OBJECT_TYPE":"PAYLOAD","ELEMENT_SET_NO":"999","TLE_LINE1":"1 48034U 21024BK  23049.74844719  .00005030  00000-0  35631-3 0  9999","FILE":"3807806","INCLINATION":"53.0516","RCS_SIZE":"LARGE","APOAPSIS":"547.847","REF_FRAME":"TEME","TIME_SYSTEM":"UTC","MEAN_MOTION_DDOT":"0.0000000000000","ARG_OF_PERICENTER":"73.2981","OBJECT_NAME":"STARLINK-2288","SEMIMAJOR_AXIS":"6925.349","SITE":"AFETR","COUNTRY_CODE":"US","NORAD_CAT_ID":"48034","TLE_LINE2":"2 48034  53.0516 296.7897 0000914  73.2981 286.8108 15.06399943106057","LAUNCH_DATE":"2021-03-24","OBJECT_ID":"2021-024BK","ECCENTRICITY":"0.00009140","EPOCH":"2023-02-18T17:57:45.837216","DECAY_DATE":null,"MEAN_ANOMALY":"286.8108","GP_ID":"225942956","BSTAR":"0.00035631000000","CENTER_NAME":"EARTH","REV_AT_EPOCH":"10605","CLASSIFICATION_TYPE":"U","MEAN_ELEMENT_THEORY":"SGP4"},{"MEAN_ANOMALY":"259.7585","GP_ID":"225942952","BSTAR":"0.00152570000000","DECAY_DATE":null,"ECCENTRICITY":"0.00018810","EPOCH":"2023-02-18T16:32:49.855488","MEAN_ELEMENT_THEORY":"SGP4","CLASSIFICATION_TYPE":"U","REV_AT_EPOCH":"10604","CENTER_NAME":"EARTH","COUNTRY_CODE":"US","SITE":"AFETR","SEMIMAJOR_AXIS":"6925.385","OBJECT_ID":"2021-024BM","LAUNCH_DATE":"2021-03-24","TLE_LINE2":"2 48036  53.0524 297.0544 0001881 100.3616 259.7585 15.06388265106044","NORAD_CAT_ID":"48036","RCS_SIZE":"LARGE","INCLINATION":"53.0524","FILE":"3807806","ARG_OF_PERICENTER":"100.3616","MEAN_MOTION_DDOT":"0.0000000000000","OBJECT_NAME":"STARLINK-2295","REF_FRAME":"TEME","TIME_SYSTEM":"UTC","APOAPSIS":"548.552","PERIAPSIS":"545.947","MEAN_MOTION":"15.06388265","MEAN_MOTION_DOT":"0.00022510","ELEMENT_SET_NO":"999","TLE_LINE1":"1 48036U 21024BM  23049.68946592  .00022510  00000-0  15257-2 0  9999","OBJECT_TYPE":"PAYLOAD","RA_OF_ASC_NODE":"297.0544","EPHEMERIS_TYPE":"0","PERIOD":"95.593"}];
